{"type": "FeatureCollection", "features": [ {"type": "Feature", "properties": {"norad_id": 34571, "name": "COSMOS 2251 DEB", "group": "cosmos-2251-debris", "lat": 68.01824894599002, "lon": -149.2006879626815, "alt_km": 747.8065635544281, "timestamp": "2025-12-21T16:47:55.133573+00:00", "meta": {"OBJECT_NAME": "COSMOS 2251 DEB", "OBJECT_ID": "1993-036VH", "EPOCH": "2025-12-21T11:28:48.283104", "MEAN_MOTION": 14.4894103, "ECCENTRICITY": 0.0065245, "INCLINATION": 74.0376, "RA_OF_ASC_NODE": 166.0548, "ARG_OF_PERICENTER": 199.1234, "MEAN_ANOMALY": 160.7476, "EPHEMERIS_TYPE": 0, "CLASSIFICATION_TYPE": "U", "NORAD_CAT_ID": 34571, "ELEMENT_SET_NO": 999, "REV_AT_EPOCH": 87420, "BSTAR": 0.0018811, "MEAN_MOTION_DOT": 7.299e-05, "MEAN_MOTION_DDOT": 0}, "tle": {"line1": "1 34571U 93036VH  25355.47833661  .00007299  00000+0  18811-2 0  9996", "line2": "2 34571  74.0376 166.0548 0065245 199.1234 160.7476 14.48941030874206"}}, "geometry": {"type": "Point", "coordinates": [-149.2006879626815, 68.01824894599002]}}, {"type": "Feature", "properties": {"norad_id": 34572, "name": "COSMOS 2251 DEB", "group": "cosmos-2251-debris", "lat": -21.814697135036425, "lon": 92.06129268533037, "alt_km": 772.8768567676434, "timestamp": "2025-12-21T16:47:55.133583+00:00", "meta": {"OBJECT_NAME": "COSMOS 2251 DEB", "OBJECT_ID": "1993-036VJ", "EPOCH": "2025-12-19T08:52:33.083040", "MEAN_MOTION": 14.50137544, "ECCENTRICITY": 0.0061983, "INCLINATION": 74.0111, "RA_OF_ASC_NODE": 103.0332, "ARG_OF_PERICENTER": 175.7717, "MEAN_ANOMALY": 241.8877, "EPHEMERIS_TYPE": 0, "CLASSIFICATION_TYPE": "U", "NORAD_CAT_ID": 34572, "ELEMENT_SET_NO": 999, "REV_AT_EPOCH": 87474, "BSTAR": 0.0016719, "MEAN_MOTION_DOT": 6.633e-05, "MEAN_MOTION_DDOT": 0}, "tle": {"line1": "1 34572U 93036VJ  25353.36982735  .00006633  00000+0  16719-2 0  9996", "line2": "2 34572  74.0111 103.0332 0061983 175.7717 241.8877 14.50137544874742"}}, "geometry": {"type": "Point", "coordinates": [92.06129268533037, -21.814697135036425]}}, {"type": "Feature", "properties": {"norad_id": 34574, "name": "COSMOS 2251 DEB", "group": "cosmos-2251-debris", "lat": 12.040584933606928, "lon": -157.7170152113846, "alt_km": 685.656709238544, "timestamp": "2025-12-21T16:47:55.133593+00:00", "meta": {"OBJECT_NAME": "COSMOS 2251 DEB", "OBJECT_ID": "1993-036VL", "EPOCH": "2025-12-21T01:28:19.433856", "MEAN_MOTION": 14.70684173, "ECCENTRICITY": 0.00671343, "INCLINATION": 74.0681, "RA_OF_ASC_NODE": 27.0127, "ARG_OF_PERICENTER": 45.3067, "MEAN_ANOMALY": 341.7255, "EPHEMERIS_TYPE": 0, "CLASSIFICATION_TYPE": "U", "NORAD_CAT_ID": 34574, "ELEMENT_SET_NO": 999, "REV_AT_EPOCH": 88901, "BSTAR": 0.00057735458, "MEAN_MOTION_DOT": 3.61e-05, "MEAN_MOTION_DDOT": 0}, "tle": {"line1": "1 34574U 93036VL  25355.06133604  .00003610  00000+0  57735-3 0  9996", "line2": "2 34574  74.0681  27.0127 0067134  45.3067 341.7255 14.70684173889010"}}, "geometry": {"type": "Point", "coordinates": [-157.7170152113846, 12.040584933606928]}}, {"type": "Feature", "properties": {"norad_id": 34576, "name": "COSMOS 2251 DEB", "group": "cosmos-2251-debris", "lat": 6.360048918145159, "lon": 123.05049830202749, "alt_km": 711.3714547480004, "timestamp": "2025-12-21T16:47:55.133603+00:00", "meta": {"OBJECT_NAME": "COSMOS 2251 DEB", "OBJECT_ID": "1993-036VN", "EPOCH": "2025-12-21T08:40:17.711904", "MEAN_MOTION": 14.55479899, "ECCENTRICITY": 0.0008247, "INCLINATION": 74.0346, "RA_OF_ASC_NODE": 121.8632, "ARG_OF_PERICENTER": 259.4419, "MEAN_ANOMALY": 133.6081, "EPHEMERIS_TYPE": 0, "CLASSIFICATION_TYPE": "U", "NORAD_CAT_ID": 34576, "ELEMENT_SET_NO": 999, "REV_AT_EPOCH": 88592, "BSTAR": 0.00064874, "MEAN_MOTION_DOT": 2.796e-05, "MEAN_MOTION_DDOT": 0}, "tle": {"line1": "1 34576U 93036VN  25355.36131611  .00002796  00000+0  64874-3 0  9993", "line2": "2 34576  74.0346 121.8632 0008247 259.4419 133.6081 14.55479899885924"}}, "geometry": {"type": "Point", "coordinates": [123.05049830202749, 6.360048918145159]}}, {"type": "Feature", "properties": {"norad_id": 34579, "name": "COSMOS 2251 DEB", "group": "cosmos-2251-debris", "lat": -70.15955049026638, "lon": 79.63351257457249, "alt_km": 729.0757889895904, "timestamp": "2025-12-21T16:47:55.133612+00:00", "meta": {"OBJECT_NAME": "COSMOS 2251 DEB", "OBJECT_ID": "1993-036VR", "EPOCH": "2025-12-21T01:21:37.646208", "MEAN_MOTION": 14.45328847, "ECCENTRICITY": 0.00275187, "INCLINATION": 74.0516, "RA_OF_ASC_NODE": 208.409, "ARG_OF_PERICENTER": 275.8213, "MEAN_ANOMALY": 236.6643, "EPHEMERIS_TYPE": 0, "CLASSIFICATION_TYPE": "U", "NORAD_CAT_ID": 34579, "ELEMENT_SET_NO": 999, "REV_AT_EPOCH": 88294, "BSTAR": 0.00026156545, "MEAN_MOTION_DOT": 8.96e-06, "MEAN_MOTION_DDOT": 0}, "tle": {"line1": "1 34579U 93036VR  25355.05668572  .00000896  00000+0  26157-3 0  9994", "line2": "2 34579  74.0516 208.4090 0027518 275.8213 236.6643 14.45328847882944"}}, "geometry": {"type": "Point", "coordinates": [79.63351257457249, -70.15955049026638]}}, {"type": "Feature", "properties": {"norad_id": 34582, "name": "COSMOS 2251 DEB", "group": "cosmos-2251-debris", "lat": 44.42172370299896, "lon": 59.404094422365205, "alt_km": 764.9826093115453, "timestamp": "2025-12-21T16:47:55.133622+00:00", "meta": {"OBJECT_NAME": "COSMOS 2251 DEB", "OBJECT_ID": "1993-036VU", "EPOCH": "2025-12-21T11:11:43.922112", "MEAN_MOTION": 14.43366673, "ECCENTRICITY": 0.0048341, "INCLINATION": 74.0199, "RA_OF_ASC_NODE": 256.1478, "ARG_OF_PERICENTER": 4.3964, "MEAN_ANOMALY": 355.7607, "EPHEMERIS_TYPE": 0, "CLASSIFICATION_TYPE": "U", "NORAD_CAT_ID": 34582, "ELEMENT_SET_NO": 999, "REV_AT_EPOCH": 88073, "BSTAR": 0.00059006, "MEAN_MOTION_DOT": 1.992e-05, "MEAN_MOTION_DDOT": 0}, "tle": {"line1": "1 34582U 93036VU  25355.46648058  .00001992  00000+0  59006-3 0  9997", "line2": "2 34582  74.0199 256.1478 0048341   4.3964 355.7607 14.43366673880735"}}, "geometry": {"type": "Point", "coordinates": [59.404094422365205, 44.42172370299896]}}, {"type": "Feature", "properties": {"norad_id": 34588, "name": "COSMOS 2251 DEB", "group": "cosmos-2251-debris", "lat": 33.18195731518003, "lon": 60.86886256762893, "alt_km": 762.1111402418182, "timestamp": "2025-12-21T16:47:55.133633+00:00", "meta": {"OBJECT_NAME": "COSMOS 2251 DEB", "OBJECT_ID": "1993-036WA", "EPOCH": "2025-12-21T03:30:26.642880", "MEAN_MOTION": 14.42044077, "ECCENTRICITY": 0.00192864, "INCLINATION": 74.0429, "RA_OF_ASC_NODE": 252.6785, "ARG_OF_PERICENTER": 304.5185, "MEAN_ANOMALY": 206.9531, "EPHEMERIS_TYPE": 0, "CLASSIFICATION_TYPE": "U", "NORAD_CAT_ID": 34588, "ELEMENT_SET_NO": 999, "REV_AT_EPOCH": 88071, "BSTAR": 0.00029360727, "MEAN_MOTION_DOT": 9.4e-06, "MEAN_MOTION_DDOT": 0}, "tle": {"line1": "1 34588U 93036WA  25355.14614170  .00000940  00000+0  29361-3 0  9999", "line2": "2 34588  74.0429 252.6785 0019286 304.5185 206.9531 14.42044077880716"}}, "geometry": {"type": "Point", "coordinates": [60.86886256762893, 33.18195731518003]}}, {"type": "Feature", "properties": {"norad_id": 34589, "name": "COSMOS 2251 DEB", "group": "cosmos-2251-debris", "lat": -14.548147942599744, "lon": 36.47267544932895, "alt_km": 762.1719463529271, "timestamp": "2025-12-21T16:47:55.133643+00:00", "meta": {"OBJECT_NAME": "COSMOS 2251 DEB", "OBJECT_ID": "1993-036WB", "EPOCH": "2025-12-21T05:01:09.143904", "MEAN_MOTION": 13.86061399, "ECCENTRICITY": 0.02522858, "INCLINATION": 73.9251, "RA_OF_ASC_NODE": 41.6, "ARG_OF_PERICENTER": 343.2461, "MEAN_ANOMALY": 73.4589, "EPHEMERIS_TYPE": 0, "CLASSIFICATION_TYPE": "U", "NORAD_CAT_ID": 34589, "ELEMENT_SET_NO": 999, "REV_AT_EPOCH": 84829, "BSTAR": 0.00030189158, "MEAN_MOTION_DOT": 4.21e-06, "MEAN_MOTION_DDOT": 0}, "tle": {"line1": "1 34589U 93036WB  25355.20913361  .00000421  00000+0  30189-3 0  9995", "line2": "2 34589  73.9251  41.6000 0252285 343.2461  73.4589 13.86061399848299"}}, "geometry": {"type": "Point", "coordinates": [36.47267544932895, -14.548147942599744]}}, {"type": "Feature", "properties": {"norad_id": 34590, "name": "COSMOS 2251 DEB", "group": "cosmos-2251-debris", "lat": 23.902319542685962, "lon": -47.11503203478036, "alt_km": 676.2636059739934, "timestamp": "2025-12-21T16:47:55.133653+00:00", "meta": {"OBJECT_NAME": "COSMOS 2251 DEB", "OBJECT_ID": "1993-036WC", "EPOCH": "2025-12-21T07:27:55.343808", "MEAN_MOTION": 14.54835172, "ECCENTRICITY": 0.0068035, "INCLINATION": 74.0443, "RA_OF_ASC_NODE": 306.3359, "ARG_OF_PERICENTER": 73.4135, "MEAN_ANOMALY": 76.2635, "EPHEMERIS_TYPE": 0, "CLASSIFICATION_TYPE": "U", "NORAD_CAT_ID": 34590, "ELEMENT_SET_NO": 999, "REV_AT_EPOCH": 89245, "BSTAR": 0.00011222, "MEAN_MOTION_DOT": 4.67e-06, "MEAN_MOTION_DDOT": 0}, "tle": {"line1": "1 34590U 93036WC  25355.31105722  .00000467  00000+0  11222-3 0  9990", "line2": "2 34590  74.0443 306.3359 0068035  73.4135  76.2635 14.54835172892456"}}, "geometry": {"type": "Point", "coordinates": [-47.11503203478036, 23.902319542685962]}}, {"type": "Feature", "properties": {"norad_id": 34609, "name": "COSMOS 2251 DEB", "group": "cosmos-2251-debris", "lat": 9.470197604813205, "lon": -92.44527956437494, "alt_km": 898.1784548862643, "timestamp": "2025-12-21T16:47:55.133663+00:00", "meta": {"OBJECT_NAME": "COSMOS 2251 DEB", "OBJECT_ID": "1993-036WE", "EPOCH": "2025-12-20T13:02:49.886880", "MEAN_MOTION": 14.21817588, "ECCENTRICITY": 0.0145584, "INCLINATION": 73.7329, "RA_OF_ASC_NODE": 92.459, "ARG_OF_PERICENTER": 310.7374, "MEAN_ANOMALY": 64.0631, "EPHEMERIS_TYPE": 0, "CLASSIFICATION_TYPE": "U", "NORAD_CAT_ID": 34609, "ELEMENT_SET_NO": 999, "REV_AT_EPOCH": 86743, "BSTAR": 0.00051907, "MEAN_MOTION_DOT": 1.244e-05, "MEAN_MOTION_DDOT": 0}, "tle": {"line1": "1 34609U 93036WE  25354.54363295  .00001244  00000+0  51907-3 0  9994", "line2": "2 34609  73.7329  92.4590 0145584 310.7374  64.0631 14.21817588867439"}}, "geometry": {"type": "Point", "coordinates": [-92.44527956437494, 9.470197604813205]}}]}